{
  "norad_id": 48223,
  "name": "ONEWEB-0219",
  "history": [
    {
      "epoch": "2026-03-28T20:13:54.490656Z",
      "apogee_km": 1206.9914778608863,
      "perigee_km": 1204.5785772286026,
      "latitude_deg": 3.384900826177474e-05,
      "longitude_deg": 176.0005303105884,
      "height_km": 1208.3893786003655,
      "semi_major_axis_km": 7583.922027544744,
      "eccentricity": 0.00015908,
      "inclination_deg": 87.8952,
      "raan_deg": 305.7352,
      "arg_perigee_deg": 76.2472,
      "mean_anomaly_deg": 283.8835,
      "mean_motion_rev_day": 13.14504185
    },
    {
      "epoch": "2026-03-29T03:32:20.774688Z",
      "apogee_km": 1206.9658607070824,
      "perigee_km": 1204.601194286609,
      "latitude_deg": 7.146331432744009e-06,
      "longitude_deg": 66.03021235449602,
      "height_km": 1208.3884483764218,
      "semi_major_axis_km": 7583.920527496845,
      "eccentricity": 0.0001559,
      "inclination_deg": 87.8952,
      "raan_deg": 305.6745,
      "arg_perigee_deg": 75.9864,
      "mean_anomaly_deg": 284.1439,
      "mean_motion_rev_day": 13.14504575
    }
  ]
}